{
    "links": {
        "self": "http://www.neowsapp.com/rest/v1/neo/3841846?api_key=iIulBulltgU6a56xZRHN4H3l9WmuAYTsLGpBGhQ2"
    },
    "id": "3841846",
    "neo_reference_id": "3841846",
    "name": "(2019 JT5)",
    "designation": "2019 JT5",
    "nasa_jpl_url": "http://ssd.jpl.nasa.gov/sbdb.cgi?sstr=3841846",
    "absolute_magnitude_h": 24.3,
    "estimated_diameter": {
        "kilometers": {
            "estimated_diameter_min": 0.0366906138,
            "estimated_diameter_max": 0.0820427065
        },
        "meters": {
            "estimated_diameter_min": 36.6906137531,
            "estimated_diameter_max": 82.0427064882
        },
        "miles": {
            "estimated_diameter_min": 0.0227984834,
            "estimated_diameter_max": 0.0509789586
        },
        "feet": {
            "estimated_diameter_min": 120.3760332259,
            "estimated_diameter_max": 269.1689931548
        }
    },
    "is_potentially_hazardous_asteroid": false,
    "close_approach_data": [
        {
            "close_approach_date": "2019-04-21",
            "close_approach_date_full": "2019-Apr-21 09:31",
            "epoch_date_close_approach": 1555839060000,
            "relative_velocity": {
                "kilometers_per_second": "7.164319441",
                "kilometers_per_hour": "25791.549987543",
                "miles_per_hour": "16025.8661575375"
            },
            "miss_distance": {
                "astronomical": "0.1814391752",
                "lunar": "70.5798391528",
                "kilometers": "27142914.144476824",
                "miles": "16865824.7706912112"
            },
            "orbiting_body": "Earth"
        }
    ],
    "orbital_data": {
        "orbit_id": "1",
        "orbit_determination_date": "2019-05-12 12:12:07",
        "first_observation_date": "2019-05-09",
        "last_observation_date": "2019-05-11",
        "data_arc_in_days": 2,
        "observations_used": 11,
        "orbit_uncertainty": "9",
        "minimum_orbit_intersection": ".177576",
        "jupiter_tisserand_invariant": "3.991",
        "epoch_osculation": "2458613.5",
        "eccentricity": ".3453062107850375",
        "semi_major_axis": "1.781763477026645",
        "inclination": "12.95456429186858",
        "ascending_node_longitude": "220.5228711546935",
        "orbital_period": "868.707368971739",
        "perihelion_distance": "1.166509482259401",
        "perihelion_argument": "334.5034318598885",
        "aphelion_distance": "2.397017471793889",
        "perihelion_time": "2458575.847050358418",
        "mean_anomaly": "15.60371461682685",
        "mean_motion": ".4144088249488668",
        "equinox": "J2000",
        "orbit_class": {
            "orbit_class_type": "AMO",
            "orbit_class_description": "Near-Earth asteroid orbits similar to that of 1221 Amor",
            "orbit_class_range": "1.017 AU < q (perihelion) < 1.3 AU"
        }
    },
    "is_sentry_object": false
}